OBJECT_NAME,OBJECT_ID,EPOCH,MEAN_MOTION,ECCENTRICITY,INCLINATION,RA_OF_ASC_NODE,ARG_OF_PERICENTER,MEAN_ANOMALY,EPHEMERIS_TYPE,CLASSIFICATION_TYPE,NORAD_CAT_ID,ELEMENT_SET_NO,REV_AT_EPOCH,BSTAR,MEAN_MOTION_DOT,MEAN_MOTION_DDOT
STARLINK-2098,2021-005AF,2026-06-01T16:24:43.892640,15.31710354,.00009087,53.1600,343.4777,74.5356,285.5746,0,U,47378,999,29658,.25377991E-3,.7521E-4,0
STARLINK-2099,2021-005AG,2026-06-01T16:38:02.056704,15.31707800,.00007875,53.1585,342.8093,76.4137,283.6953,0,U,47379,999,29659,.30830413E-3,.9216E-4,0
STARLINK-2100,2021-005AH,2026-06-02T06:00:02.999808,15.76304025,.00044619,53.0560,344.8810,263.8250,99.5466,0,U,47380,999,587,.86636023E-3,.140911E-2,0
STARLINK-2101,2021-005AJ,2026-05-31T23:32:57.122880,15.31702756,.0001044,53.1600,9.9960,118.0859,242.0248,0,U,47381,999,29614,.17627208E-3,.5109E-4,0
STARLINK-2102,2021-005AK,2026-05-31T23:15:29.500416,15.31697792,.0001099,53.1595,359.1769,77.1243,282.9881,0,U,47382,999,29629,.9553048E-4,.26E-4,0
STARLINK-2103,2021-005AL,2026-06-02T01:09:59.146272,15.33648993,.00008622,53.1611,341.6892,268.5662,91.5242,0,U,47383,999,29664,.15576894E-2,.51371E-3,0
STARLINK-2104,2021-005AM,2026-06-01T17:37:27.998112,15.30176521,.00015382,53.1602,6.3231,87.9734,272.1443,0,U,47384,999,29625,.51825871E-4,.1175E-4,0
STARLINK-2105,2021-005AN,2026-06-01T17:45:53.886528,15.31724905,.00012009,53.1597,6.1364,92.5621,267.5517,0,U,47385,999,29625,.43078256E-3,.13036E-3,0
STARLINK-2106,2021-005AP,2026-05-31T20:50:29.219136,15.30190477,.00012516,53.1599,10.3357,79.8226,280.2916,0,U,47386,999,29612,.9818261E-4,.2549E-4,0
STARLINK-2109,2021-005AR,2026-06-01T02:30:11.308320,15.31701843,.00010022,53.1606,38.2879,94.2790,265.8326,0,U,47388,999,29574,.35131351E-3,.10553E-3,0
STARLINK-2110,2021-005AS,2026-05-31T23:31:51.470976,15.31698767,.00012496,53.1586,9.3187,81.6324,278.4819,0,U,47389,999,29615,.10727153E-3,.2965E-4,0
STARLINK-2111,2021-005AT,2026-06-01T22:18:06.325632,15.31703014,.00011488,53.1600,34.5008,56.7059,303.4052,0,U,47390,999,29587,.12212209E-3,.3427E-4,0
STARLINK-2112,2021-005AU,2026-06-01T00:51:23.030208,15.11317284,.00020781,53.0678,15.9460,118.6828,241.4373,0,U,47391,999,29604,.15634063E-2,.26446E-3,0
STARLINK-2113,2021-005AV,2026-06-02T06:00:02.999808,15.78139431,.00003588,53.0455,319.4696,113.5037,158.0556,0,U,47392,999,598,.25495871E-3,.44001E-3,0
STARLINK-2114,2021-005AW,2026-06-02T06:00:02.999808,15.99011522,.001078,53.0292,280.5019,310.7648,84.4674,0,U,47393,999,586,.12901411E-2,.640878E-2,.19223835E-3
STARLINK-2119,2021-005BA,2026-06-02T05:49:45.800544,15.33122392,.00012879,53.1604,29.3331,172.4708,187.6314,0,U,47397,999,29598,.14164385E-2,.45871E-3,0
STARLINK-2121,2021-005BC,2026-05-31T23:38:33.241344,15.31686377,.00015884,53.1606,9.2585,136.7913,223.3213,0,U,47399,999,29615,.87564908E-4,.2352E-4,0
STARLINK-2122,2021-005BD,2026-06-01T16:44:45.317472,15.31710949,.00012025,53.1607,342.7711,96.8199,263.2940,0,U,47400,999,29659,.3572789E-3,.10741E-3,0
STARLINK-2123,2021-005BE,2026-05-31T21:37:48.135648,15.31700589,.00008463,53.1587,9.9106,118.5189,241.5898,0,U,47401,999,29613,-.8131464E-4,-.2887E-4,0
STARLINK-2128,2021-005BH,2026-06-02T06:00:02.999808,15.81462590,.00012674,53.0415,317.7904,223.6889,354.8956,0,U,47404,999,599,.93022872E-3,.192242E-2,0
STARLINK-2130,2021-005BJ,2026-06-01T01:01:43.434048,15.31703702,.00009962,53.1585,34.7195,93.8563,266.2552,0,U,47405,999,29579,.21944362E-3,.6451E-4,0
STARLINK-2134,2021-005BL,2026-06-02T04:04:10.359840,15.31695252,.00012695,53.1590,5.8460,84.0571,276.0575,0,U,47407,999,29629,.25538225E-4,.427E-5,0
STARLINK-2135,2021-005BM,2026-06-01T21:54:13.580352,15.31719435,.00010468,53.1602,5.4326,83.6175,276.4946,0,U,47408,999,29628,.32812135E-3,.9836E-4,0
ASTROCAST-0101,2021-006T,2026-06-01T17:49:14.559168,15.80781150,.00060306,97.2275,220.8189,245.0657,114.9985,0,U,47430,999,29751,.19877598E-2,.398094E-2,0
CUBEL,2021-006AM,2026-06-02T02:19:04.773792,15.40759788,.00055689,97.2340,203.8275,213.9675,146.1216,0,U,47448,999,29743,.25182886E-3,.10225E-3,0
CELESTIS-17 & SHERPA-FX1,2021-006CB,2026-06-02T02:58:03.603648,15.31988141,.00049442,97.2257,194.5518,242.8679,117.2059,0,U,47486,999,29699,.21043925E-3,.6425E-4,0
HAWK-2C,2021-006CT,2026-06-02T02:08:44.730240,15.34468966,.00051822,97.2282,197.7017,247.1144,112.9553,0,U,47502,999,29718,.21761873E-3,.719E-4,0
ION SCV-002,2021-006CV,2026-06-01T22:29:35.084832,15.43626418,.00118135,97.1118,155.1912,162.0610,198.1058,0,U,47504,999,29767,.31084666E-3,.13948E-3,0
HAWK-2A,2021-006CW,2026-06-02T02:12:32.967072,15.34484437,.00046799,97.2326,198.3732,252.3967,107.6766,0,U,47505,999,29718,.2215023E-3,.7323E-4,0
HAWK-2B,2021-006CZ,2026-06-02T02:07:11.476128,15.34546286,.00051924,97.2193,196.7256,248.9076,111.1613,0,U,47508,999,29718,.24545348E-3,.8141E-4,0
GHGSAT-C2,2021-006DA,2026-06-02T02:48:55.531296,15.37605910,.00043198,97.2152,200.6379,202.4102,157.6956,0,U,47509,999,29753,.1895389E-3,.6917E-4,0
ASTROCAST-0105,2021-006DH,2026-06-02T03:32:45.409056,15.94372296,.00086098,97.1992,217.0243,235.8850,124.1609,0,U,47517,999,29856,.20085883E-2,.747909E-2,.23914141E-3
YAOGAN-31 02A,2021-007A,2026-06-02T07:52:42.195360,13.45447477,.0174693,63.4015,181.3052,0.4474,359.6678,0,U,47532,999,26223,.16626488E-3,.18E-6,0
YAOGAN-31 02B,2021-007B,2026-06-02T07:52:45.023232,13.45447285,.01751399,63.4010,180.3125,0.5605,359.5586,0,U,47533,999,26223,.35844372E-4,-.67E-6,0
YAOGAN-31 02C,2021-007E,2026-06-02T07:52:24.707136,13.45446329,.01747826,63.4009,180.3304,0.5805,359.5393,0,U,47536,999,26221,.75565128E-4,-.41E-6,0
COSMOS 2549,2021-008A,2026-06-02T06:49:14.684736,13.97021064,.00056035,67.1511,21.3096,263.8763,96.1683,0,U,47546,999,27175,.51468409E-4,-.3E-7,0
STARLINK-1954,2021-009H,2026-06-01T16:24:33.124608,15.39516076,.0002038,53.0515,336.0035,101.2961,258.8272,0,U,47555,999,29386,.15616953E-2,.62372E-3,0
STARLINK-1958,2021-009M,2026-06-02T06:00:02.999808,15.92807932,.001095,53.0326,258.3902,303.6692,346.7096,0,U,47559,999,601,.10333423E-2,.365072E-2,.62308447E-4
STARLINK-1962,2021-009R,2026-06-02T06:00:02.999808,15.81855590,.00057177,53.0391,297.5318,318.8502,334.2181,0,U,47563,999,599,.10805155E-2,.228675E-2,0
STARLINK-1964,2021-009T,2026-06-02T06:00:02.999808,15.91421340,.00091462,53.0363,266.5187,292.3352,156.2595,0,U,47565,999,586,.11286627E-2,.37033E-2,.62896708E-4
STARLINK-1967,2021-009W,2026-06-02T06:00:02.999808,15.79884303,.00028332,53.0404,306.1892,288.0215,121.5510,0,U,47568,999,600,.91941722E-3,.176369E-2,0
STARLINK-1991,2021-009AR,2026-06-02T06:00:02.999808,15.92002367,.00094104,53.0357,270.1026,319.0931,247.9347,0,U,47587,999,596,.11983366E-2,.405587E-2,.74052155E-4
STARLINK-1993,2021-009AS,2026-06-02T14:12:56.096352,16.21962011,.0013874,53.0248,270.3880,308.0620,51.9166,0,U,47588,999,29485,.95319E-3,.2258352E-1,.11882E-4
STARLINK-1994,2021-009AT,2026-06-02T05:41:32.706240,15.73510764,.0002181,53.0415,306.8751,19.5467,340.5634,0,U,47589,999,29431,.83473722E-3,.119832E-2,0
STARLINK-1995,2021-009AU,2026-06-01T17:59:49.104960,15.73714128,.00008093,53.0394,326.7881,271.4398,88.6528,0,U,47590,999,29399,.79589306E-3,.115162E-2,0
STARLINK-1997,2021-009AW,2026-06-02T06:00:02.999808,15.88903301,.00082598,53.0313,298.7489,312.1912,2.6553,0,U,47592,999,601,.11683028E-2,.352981E-2,0
STARLINK-2001,2021-009BA,2026-06-01T17:14:00.052224,15.66158302,.00029215,53.0414,332.8038,120.3377,239.7927,0,U,47596,999,29390,.7820538E-3,.82232E-3,0
STARLINK-2021,2021-009BJ,2026-06-02T06:00:02.999808,15.88666949,.0007316,53.0364,274.5923,330.5451,224.9757,0,U,47604,999,584,.11876746E-2,.354503E-2,0
TJS-6,2021-010A,2026-06-01T02:34:03.161856,1.00272024,.00026435,0.5603,87.7751,335.3213,43.5118,0,U,47613,999,1965,0,.55E-6,0
STARLINK-1609,2021-012B,2026-06-01T01:20:07.014336,15.44362188,.0004104,53.1598,32.8716,119.0242,241.1177,0,U,47621,999,29292,.17792745E-2,.83902E-3,0
STARLINK-1655,2021-012D,2026-06-02T06:00:02.999808,15.87253224,.0007686,53.0313,265.2089,292.7473,314.5796,0,U,47623,999,600,.11251844E-2,.311614E-2,0
STARLINK-1704,2021-012F,2026-05-31T22:15:12.037824,15.56164119,.00062577,53.0476,23.3906,121.1045,239.0580,0,U,47625,999,29301,.1449936E-2,.10425E-2,0
STARLINK-1972,2021-012H,2026-06-02T08:00:04.999680,15.61973567,.00019702,53.0465,275.7716,260.7561,120.3750,0,U,47627,999,591,.14956465E-2,.134547E-2,0
STARLINK-1973,2021-012J,2026-06-01T02:09:47.571552,15.31701320,.00010469,53.1614,37.0669,99.0377,261.0743,0,U,47628,999,29286,.4509372E-4,.1035E-4,0
STARLINK-1983,2021-012L,2026-06-01T00:30:55.379520,15.31689310,.00012958,53.1602,21.9633,82.7651,277.3498,0,U,47630,999,29304,.13940267E-3,.3962E-4,0
STARLINK-1992,2021-012N,2026-06-01T21:05:15.179424,15.31721633,.0000831,53.1612,301.0959,67.5737,292.5352,0,U,47632,999,29425,.38268744E-3,.11537E-3,0
STARLINK-2015,2021-012U,2026-06-01T17:14:20.227488,15.34518733,.00031198,53.1579,301.3493,291.4174,68.6496,0,U,47638,999,29423,.27468853E-2,.93962E-3,0
STARLINK-2019,2021-012X,2026-06-02T08:00:04.999680,15.76687964,.00054714,53.0391,245.8327,326.8364,248.1164,0,U,47641,999,599,.366519E-3,.59697E-3,0
STARLINK-2031,2021-012AE,2026-06-02T00:00:04.999968,15.31678816,.00014433,53.1610,17.3666,77.0517,153.5012,0,U,47648,999,587,.14998577E-2,.46437E-3,0
STARLINK-2032,2021-012AF,2026-06-02T08:00:04.999680,15.84596125,.00057543,53.0342,312.7688,330.1082,87.6651,0,U,47649,999,602,.83843703E-3,.201181E-2,0
STARLINK-2033,2021-012AG,2026-05-31T22:10:28.051392,15.39704003,.00054207,53.1523,19.7086,119.2486,240.9062,0,U,47650,999,29307,.13326649E-2,.53449E-3,0
STARLINK-2036,2021-012AJ,2026-06-02T08:00:04.999680,15.55066152,.000132,53.1589,19.7237,109.5443,294.1797,0,U,47652,999,594,.35523046E-2,.250364E-2,0
STARLINK-2039,2021-012AM,2026-05-31T21:41:20.790240,15.31701248,.00010183,53.1596,37.9868,114.6991,245.4117,0,U,47655,999,29283,.84820611E-4,.2268E-4,0
STARLINK-2040,2021-012AN,2026-05-31T21:49:49.713024,15.31698525,.00010417,53.1615,22.4332,63.2288,296.8820,0,U,47656,999,29304,.5730665E-4,.1414E-4,0
